[{"OBJECT_NAME":"STARLINK-3358","OBJECT_ID":"2022-005F","EPOCH":"2026-03-09T22:15:10.403136","MEAN_MOTION":15.0883983,"ECCENTRICITY":0.00012483,"INCLINATION":53.2177,"RA_OF_ASC_NODE":288.0056,"ARG_OF_PERICENTER":84.5569,"MEAN_ANOMALY":275.5566,"EPHEMERIS_TYPE":0,"CLASSIFICATION_TYPE":"U","NORAD_CAT_ID":51109,"ELEMENT_SET_NO":999,"REV_AT_EPOCH":22868,"BSTAR":2.5979923e-5,"MEAN_MOTION_DOT":1.26e-6,"MEAN_MOTION_DDOT":0},{"OBJECT_NAME":"CZ-4B DEB","OBJECT_ID":"2008-053L","EPOCH":"2026-03-08T19:52:33.417984","MEAN_MOTION":15.09778257,"ECCENTRICITY":0.00077037,"INCLINATION":97.7892,"RA_OF_ASC_NODE":87.441,"ARG_OF_PERICENTER":237.5543,"MEAN_ANOMALY":122.4941,"EPHEMERIS_TYPE":0,"CLASSIFICATION_TYPE":"U","NORAD_CAT_ID":36290,"ELEMENT_SET_NO":999,"REV_AT_EPOCH":71411,"BSTAR":0.00021001,"MEAN_MOTION_DOT":3.326e-5,"MEAN_MOTION_DDOT":0}]
